[{"OBJECT_NAME":"IRIDIUM 180","OBJECT_ID":"2019-002A","EPOCH":"2026-03-09T22:12:10.971936","MEAN_MOTION":14.34217842,"ECCENTRICITY":0.00022889,"INCLINATION":86.3973,"RA_OF_ASC_NODE":35.0663,"ARG_OF_PERICENTER":84.9653,"MEAN_ANOMALY":275.1804,"EPHEMERIS_TYPE":0,"CLASSIFICATION_TYPE":"U","NORAD_CAT_ID":43922,"ELEMENT_SET_NO":999,"REV_AT_EPOCH":37476,"BSTAR":6.536861e-6,"MEAN_MOTION_DOT":3.8e-7,"MEAN_MOTION_DDOT":0},{"OBJECT_NAME":"FENGYUN 1C DEB","OBJECT_ID":"1999-025CVT","EPOCH":"2026-03-09T21:24:13.266144","MEAN_MOTION":14.59001153,"ECCENTRICITY":0.0144664,"INCLINATION":98.5769,"RA_OF_ASC_NODE":226.6094,"ARG_OF_PERICENTER":237.1598,"MEAN_ANOMALY":121.5604,"EPHEMERIS_TYPE":0,"CLASSIFICATION_TYPE":"U","NORAD_CAT_ID":32221,"ELEMENT_SET_NO":999,"REV_AT_EPOCH":98468,"BSTAR":0.00045387875,"MEAN_MOTION_DOT":2.406e-5,"MEAN_MOTION_DDOT":0}]
